{
"type": "FeatureCollection",
"name": "UM6P-full",
"crs": { "type": "name", "properties": { "name": "urn:ogc:def:crs:OGC:1.3:CRS84" } },
"features": [
{ "type": "Feature", "properties": { "id": "relation/18136360", "@id": "relation/18136360", "building": "yes", "building:colour": "#D8BF96", "building:levels": "1", "building:material": null, "fixme": null, "height": "15", "layer": null, "min_height": null, "name": "centre des Congrés ", "note": null, "roof:colour": "#666666", "roof:shape": null, "type": "multipolygon" }, "geometry": { "type": "Polygon", "coordinates": [ [ [ -6.725321, 33.9811557 ], [ -6.72523, 33.9810347 ], [ -6.7251218, 33.9809563 ], [ -6.7249758, 33.9809057 ], [ -6.7248181, 33.9808959 ], [ -6.7246648, 33.980928 ], [ -6.7245314, 33.9809986 ], [ -6.724432, 33.9811005 ], [ -6.7243779, 33.9812174 ], [ -6.7243689, 33.9813422 ], [ -6.7243988, 33.9814405 ], [ -6.7244852, 33.9815699 ], [ -6.7245995, 33.9816515 ], [ -6.7247382, 33.9817007 ], [ -6.7248884, 33.9817128 ], [ -6.7249173, 33.9817077 ], [ -6.7250359, 33.9816868 ], [ -6.725167, 33.9816251 ], [ -6.7252697, 33.9815334 ], [ -6.7253362, 33.9814144 ], [ -6.7253539, 33.981284 ], [ -6.725321, 33.9811557 ] ], [ [ -6.7248241, 33.980902 ], [ -6.724975, 33.9809117 ], [ -6.725117, 33.9809629 ], [ -6.7252241, 33.981041 ], [ -6.725313, 33.9811535 ], [ -6.7250799, 33.9810311 ], [ -6.7248241, 33.980902 ] ], [ [ -6.7244068, 33.9814427 ], [ -6.7249093, 33.9817021 ], [ -6.7247431, 33.9816925 ], [ -6.7246054, 33.9816434 ], [ -6.7244948, 33.9815629 ], [ -6.7244068, 33.9814427 ] ] ] } },
{ "type": "Feature", "properties": { "id": "relation/18148018", "@id": "relation/18148018", "building": "yes", "building:colour": null, "building:levels": "2", "building:material": null, "fixme": null, "height": null, "layer": null, "min_height": null, "name": "Africa Business School", "note": null, "roof:colour": null, "roof:shape": null, "type": "multipolygon" }, "geometry": { "type": "Polygon", "coordinates": [ [ [ -6.7289806, 33.9833741 ], [ -6.7293514, 33.9835597 ], [ -6.7295509, 33.9832857 ], [ -6.729604, 33.9832128 ], [ -6.7297098, 33.9830676 ], [ -6.7297346, 33.9830334 ], [ -6.7298887, 33.9828217 ], [ -6.7299485, 33.9827397 ], [ -6.7300709, 33.9825715 ], [ -6.7301133, 33.9825132 ], [ -6.7297424, 33.9823275 ], [ -6.7289806, 33.9833741 ] ] ] } },
{ "type": "Feature", "properties": { "id": "relation/18159934", "@id": "relation/18159934", "building": "yes", "building:colour": null, "building:levels": "5", "building:material": null, "fixme": null, "height": null, "layer": null, "min_height": null, "name": " résidence r8 & r9", "note": null, "roof:colour": null, "roof:shape": null, "type": "multipolygon" }, "geometry": { "type": "MultiPolygon", "coordinates": [ [ [ [ -6.7260149, 33.9808689 ], [ -6.7260753, 33.9807919 ], [ -6.7260931, 33.9807687 ], [ -6.7258922, 33.9806627 ], [ -6.7261554, 33.9803195 ], [ -6.726029, 33.9802529 ], [ -6.7256885, 33.9806968 ], [ -6.7260149, 33.9808689 ] ] ], [ [ [ -6.726429, 33.9809447 ], [ -6.726411, 33.9809683 ], [ -6.7263523, 33.9810458 ], [ -6.7266431, 33.9811986 ], [ -6.7269789, 33.980759 ], [ -6.7268674, 33.9807004 ], [ -6.7266088, 33.9810391 ], [ -6.726429, 33.9809447 ] ] ] ] } },
{ "type": "Feature", "properties": { "id": "relation/18166684", "@id": "relation/18166684", "building": "yes", "building:colour": null, "building:levels": null, "building:material": null, "fixme": null, "height": null, "layer": null, "min_height": null, "name": "Teaching building B ", "note": null, "roof:colour": null, "roof:shape": null, "type": "multipolygon" }, "geometry": { "type": "MultiPolygon", "coordinates": [ [ [ [ -6.7290939, 33.9787965 ], [ -6.7291421, 33.978734 ], [ -6.7292148, 33.9787743 ], [ -6.7291685, 33.9788352 ], [ -6.729407, 33.978959 ], [ -6.7294559, 33.9788958 ], [ -6.7295287, 33.9789361 ], [ -6.7294816, 33.9789977 ], [ -6.7297012, 33.9791117 ], [ -6.7297498, 33.9790488 ], [ -6.7298225, 33.9790891 ], [ -6.7297756, 33.9791503 ], [ -6.7300107, 33.9792724 ], [ -6.7300594, 33.9792095 ], [ -6.7301321, 33.9792498 ], [ -6.730085, 33.9793109 ], [ -6.730299, 33.979422 ], [ -6.7303484, 33.9793584 ], [ -6.7304211, 33.9793987 ], [ -6.7303736, 33.9794607 ], [ -6.7306034, 33.97958 ], [ -6.730725, 33.9794188 ], [ -6.7306919, 33.9794017 ], [ -6.7307664, 33.9793031 ], [ -6.7307911, 33.9793159 ], [ -6.7309051, 33.979165 ], [ -6.7306869, 33.9790516 ], [ -6.7306443, 33.9791072 ], [ -6.7305732, 33.9790689 ], [ -6.7306155, 33.9790145 ], [ -6.7303987, 33.9789019 ], [ -6.7303553, 33.9789583 ], [ -6.7302842, 33.9789201 ], [ -6.7303273, 33.9788648 ], [ -6.7300893, 33.9787412 ], [ -6.7300457, 33.9787976 ], [ -6.7299746, 33.9787594 ], [ -6.7300177, 33.978704 ], [ -6.7297952, 33.9785884 ], [ -6.7297518, 33.9786446 ], [ -6.7296808, 33.9786064 ], [ -6.7297238, 33.9785513 ], [ -6.7294813, 33.9784253 ], [ -6.729438, 33.9784828 ], [ -6.7293669, 33.9784446 ], [ -6.7294101, 33.9783884 ], [ -6.7291771, 33.9782673 ], [ -6.7290654, 33.9784152 ], [ -6.7291064, 33.9784366 ], [ -6.7290198, 33.9785514 ], [ -6.7289872, 33.9785345 ], [ -6.7288751, 33.9786829 ], [ -6.7290939, 33.9787965 ] ] ], [ [ [ -6.7290939, 33.9787965 ], [ -6.7291421, 33.978734 ], [ -6.7292148, 33.9787743 ], [ -6.7291685, 33.9788352 ], [ -6.729407, 33.978959 ], [ -6.7294559, 33.9788958 ], [ -6.7295287, 33.9789361 ], [ -6.7294816, 33.9789977 ], [ -6.7297012, 33.9791117 ], [ -6.7297498, 33.9790488 ], [ -6.7298225, 33.9790891 ], [ -6.7297756, 33.9791503 ], [ -6.7300107, 33.9792724 ], [ -6.7300594, 33.9792095 ], [ -6.7301321, 33.9792498 ], [ -6.730085, 33.9793109 ], [ -6.730299, 33.979422 ], [ -6.7303484, 33.9793584 ], [ -6.7304211, 33.9793987 ], [ -6.7303736, 33.9794607 ], [ -6.7306034, 33.97958 ], [ -6.730725, 33.9794188 ], [ -6.7306919, 33.9794017 ], [ -6.7307664, 33.9793031 ], [ -6.7307911, 33.9793159 ], [ -6.7309051, 33.979165 ], [ -6.7306869, 33.9790516 ], [ -6.7306443, 33.9791072 ], [ -6.7305732, 33.9790689 ], [ -6.7306155, 33.9790145 ], [ -6.7303987, 33.9789019 ], [ -6.7303553, 33.9789583 ], [ -6.7302842, 33.9789201 ], [ -6.7303273, 33.9788648 ], [ -6.7300893, 33.9787412 ], [ -6.7300457, 33.9787976 ], [ -6.7299746, 33.9787594 ], [ -6.7300177, 33.978704 ], [ -6.7297952, 33.9785884 ], [ -6.7297518, 33.9786446 ], [ -6.7296808, 33.9786064 ], [ -6.7297238, 33.9785513 ], [ -6.7294813, 33.9784253 ], [ -6.729438, 33.9784828 ], [ -6.7293669, 33.9784446 ], [ -6.7294101, 33.9783884 ], [ -6.7291771, 33.9782673 ], [ -6.7290654, 33.9784152 ], [ -6.7291064, 33.9784366 ], [ -6.7290198, 33.9785514 ], [ -6.7289872, 33.9785345 ], [ -6.7288751, 33.9786829 ], [ -6.7290939, 33.9787965 ] ] ], [ [ [ -6.7290939, 33.9787965 ], [ -6.7291421, 33.978734 ], [ -6.7292148, 33.9787743 ], [ -6.7291685, 33.9788352 ], [ -6.729407, 33.978959 ], [ -6.7294559, 33.9788958 ], [ -6.7295287, 33.9789361 ], [ -6.7294816, 33.9789977 ], [ -6.7297012, 33.9791117 ], [ -6.7297498, 33.9790488 ], [ -6.7298225, 33.9790891 ], [ -6.7297756, 33.9791503 ], [ -6.7300107, 33.9792724 ], [ -6.7300594, 33.9792095 ], [ -6.7301321, 33.9792498 ], [ -6.730085, 33.9793109 ], [ -6.730299, 33.979422 ], [ -6.7303484, 33.9793584 ], [ -6.7304211, 33.9793987 ], [ -6.7303736, 33.9794607 ], [ -6.7306034, 33.97958 ], [ -6.730725, 33.9794188 ], [ -6.7306919, 33.9794017 ], [ -6.7307664, 33.9793031 ], [ -6.7307911, 33.9793159 ], [ -6.7309051, 33.979165 ], [ -6.7306869, 33.9790516 ], [ -6.7306443, 33.9791072 ], [ -6.7305732, 33.9790689 ], [ -6.7306155, 33.9790145 ], [ -6.7303987, 33.9789019 ], [ -6.7303553, 33.9789583 ], [ -6.7302842, 33.9789201 ], [ -6.7303273, 33.9788648 ], [ -6.7300893, 33.9787412 ], [ -6.7300457, 33.9787976 ], [ -6.7299746, 33.9787594 ], [ -6.7300177, 33.978704 ], [ -6.7297952, 33.9785884 ], [ -6.7297518, 33.9786446 ], [ -6.7296808, 33.9786064 ], [ -6.7297238, 33.9785513 ], [ -6.7294813, 33.9784253 ], [ -6.729438, 33.9784828 ], [ -6.7293669, 33.9784446 ], [ -6.7294101, 33.9783884 ], [ -6.7291771, 33.9782673 ], [ -6.7290654, 33.9784152 ], [ -6.7291064, 33.9784366 ], [ -6.7290198, 33.9785514 ], [ -6.7289872, 33.9785345 ], [ -6.7288751, 33.9786829 ], [ -6.7290939, 33.9787965 ] ] ] ] } },
{ "type": "Feature", "properties": { "id": "relation/18174532", "@id": "relation/18174532", "building": "yes", "building:colour": "#D8BF96", "building:levels": "2", "building:material": null, "fixme": null, "height": null, "layer": null, "min_height": null, "name": "", "note": null, "roof:colour": "#EEEEEE", "roof:shape": null, "type": "multipolygon" }, "geometry": { "type": "Polygon", "coordinates": [ [ [ -6.7306855, 33.9814288 ], [ -6.7310136, 33.9815993 ], [ -6.7311326, 33.9814419 ], [ -6.7308036, 33.9812709 ], [ -6.7307701, 33.9813171 ], [ -6.7306855, 33.9814288 ] ] ] } },
{ "type": "Feature", "properties": { "id": "way/1202079454", "@id": "way/1202079454", "building": "yes", "building:colour": null, "building:levels": null, "building:material": null, "fixme": null, "height": null, "layer": null, "min_height": null, "name": "gym", "note": null, "roof:colour": "#deddda", "roof:shape": null, "type": null }, "geometry": { "type": "Polygon", "coordinates": [ [ [ -6.7282079, 33.9783543 ], [ -6.7286711, 33.9786003 ], [ -6.7289875, 33.9781904 ], [ -6.7285244, 33.9779445 ], [ -6.7282079, 33.9783543 ] ] ] } },
{ "type": "Feature", "properties": { "id": "way/1202079455", "@id": "way/1202079455", "building": "yes", "building:colour": null, "building:levels": null, "building:material": null, "fixme": null, "height": null, "layer": null, "min_height": null, "name": "Policy center for the new south ", "note": null, "roof:colour": "#5e5c64", "roof:shape": null, "type": null }, "geometry": { "type": "Polygon", "coordinates": [ [ [ -6.7279298, 33.9787503 ], [ -6.7284483, 33.9790172 ], [ -6.728664, 33.9787289 ], [ -6.7281454, 33.9784621 ], [ -6.7279298, 33.9787503 ] ] ] } },
{ "type": "Feature", "properties": { "id": "way/1202079456", "@id": "way/1202079456", "building": "yes", "building:colour": "#D8BF96", "building:levels": null, "building:material": null, "fixme": null, "height": null, "layer": null, "min_height": null, "name": "Teaching building B", "note": null, "roof:colour": "#888888", "roof:shape": null, "type": "multipolygon" }, "geometry": { "type": "Polygon", "coordinates": [ [ [ -6.7290939, 33.9787965 ], [ -6.7291421, 33.978734 ], [ -6.7292148, 33.9787743 ], [ -6.7291685, 33.9788352 ], [ -6.729407, 33.978959 ], [ -6.7294559, 33.9788958 ], [ -6.7295287, 33.9789361 ], [ -6.7294816, 33.9789977 ], [ -6.7297012, 33.9791117 ], [ -6.7297498, 33.9790488 ], [ -6.7298225, 33.9790891 ], [ -6.7297756, 33.9791503 ], [ -6.7300107, 33.9792724 ], [ -6.7300594, 33.9792095 ], [ -6.7301321, 33.9792498 ], [ -6.730085, 33.9793109 ], [ -6.730299, 33.979422 ], [ -6.7303484, 33.9793584 ], [ -6.7304211, 33.9793987 ], [ -6.7303736, 33.9794607 ], [ -6.7306034, 33.97958 ], [ -6.730725, 33.9794188 ], [ -6.7306919, 33.9794017 ], [ -6.7307664, 33.9793031 ], [ -6.7307911, 33.9793159 ], [ -6.7309051, 33.979165 ], [ -6.7306869, 33.9790516 ], [ -6.7306443, 33.9791072 ], [ -6.7305732, 33.9790689 ], [ -6.7306155, 33.9790145 ], [ -6.7303987, 33.9789019 ], [ -6.7303553, 33.9789583 ], [ -6.7302842, 33.9789201 ], [ -6.7303273, 33.9788648 ], [ -6.7300893, 33.9787412 ], [ -6.7300457, 33.9787976 ], [ -6.7299746, 33.9787594 ], [ -6.7300177, 33.978704 ], [ -6.7297952, 33.9785884 ], [ -6.7297518, 33.9786446 ], [ -6.7296808, 33.9786064 ], [ -6.7297238, 33.9785513 ], [ -6.7294813, 33.9784253 ], [ -6.729438, 33.9784828 ], [ -6.7293669, 33.9784446 ], [ -6.7294101, 33.9783884 ], [ -6.7291771, 33.9782673 ], [ -6.7290654, 33.9784152 ], [ -6.7291064, 33.9784366 ], [ -6.7290198, 33.9785514 ], [ -6.7289872, 33.9785345 ], [ -6.7288751, 33.9786829 ], [ -6.7290939, 33.9787965 ] ] ] } },
{ "type": "Feature", "properties": { "id": "way/1202079457", "@id": "way/1202079457", "building": "yes", "building:colour": null, "building:levels": null, "building:material": null, "fixme": null, "height": null, "layer": null, "min_height": null, "name": "PPS", "note": null, "roof:colour": null, "roof:shape": null, "type": null }, "geometry": { "type": "Polygon", "coordinates": [ [ [ -6.7307957, 33.9794695 ], [ -6.7306772, 33.9796279 ], [ -6.7311883, 33.9798908 ], [ -6.7313123, 33.9797251 ], [ -6.7312679, 33.9797022 ], [ -6.7313452, 33.9795989 ], [ -6.7313702, 33.9796118 ], [ -6.7314764, 33.9794698 ], [ -6.7309894, 33.9792191 ], [ -6.7308887, 33.9793536 ], [ -6.7309164, 33.9793678 ], [ -6.7308279, 33.9794861 ], [ -6.7307957, 33.9794695 ] ] ] } },
{ "type": "Feature", "properties": { "id": "way/1202079458", "@id": "way/1202079458", "building": "yes", "building:colour": null, "building:levels": null, "building:material": null, "fixme": null, "height": null, "layer": null, "min_height": null, "name": "SHBM", "note": null, "roof:colour": "#888888", "roof:shape": null, "type": null }, "geometry": { "type": "Polygon", "coordinates": [ [ [ -6.7318563, 33.9793308 ], [ -6.7323626, 33.9795897 ], [ -6.7325514, 33.9793358 ], [ -6.732045, 33.979077 ], [ -6.7318563, 33.9793308 ] ] ] } },
{ "type": "Feature", "properties": { "id": "way/1202079459", "@id": "way/1202079459", "building": "yes", "building:colour": "#D8BF96", "building:levels": "2", "building:material": null, "fixme": null, "height": "8", "layer": null, "min_height": null, "name": "Ai movement ", "note": "height must be verified", "roof:colour": "#888888", "roof:shape": null, "type": null }, "geometry": { "type": "Polygon", "coordinates": [ [ [ -6.7318177, 33.9793957 ], [ -6.7313648, 33.9800001 ], [ -6.7318696, 33.9802601 ], [ -6.7323223, 33.9796557 ], [ -6.7318177, 33.9793957 ] ] ] } },
{ "type": "Feature", "properties": { "id": "way/1202079460", "@id": "way/1202079460", "building": "yes", "building:colour": null, "building:levels": null, "building:material": null, "fixme": null, "height": null, "layer": null, "min_height": null, "name": "AmphiTheatre", "note": null, "roof:colour": "#EEEEEE", "roof:shape": null, "type": null }, "geometry": { "type": "Polygon", "coordinates": [ [ [ -6.730473, 33.9798839 ], [ -6.7301278, 33.980337 ], [ -6.7306296, 33.9805999 ], [ -6.7309749, 33.9801468 ], [ -6.730473, 33.9798839 ] ] ] } },
{ "type": "Feature", "properties": { "id": "way/1202079461", "@id": "way/1202079461", "building": "yes", "building:colour": null, "building:levels": null, "building:material": null, "fixme": null, "height": null, "layer": null, "min_height": null, "name": "Student center", "note": null, "roof:colour": null, "roof:shape": null, "type": null }, "geometry": { "type": "Polygon", "coordinates": [ [ [ -6.7297705, 33.9797868 ], [ -6.7302468, 33.9800269 ], [ -6.7305256, 33.9796468 ], [ -6.7300493, 33.9794066 ], [ -6.7297705, 33.9797868 ] ] ] } },
{ "type": "Feature", "properties": { "id": "way/1202079462", "@id": "way/1202079462", "building": "yes", "building:colour": "#D8BF96", "building:levels": "2", "building:material": null, "fixme": null, "height": "8", "layer": null, "min_height": null, "name": "Restaurant ", "note": "height must be verified", "roof:colour": "#deddda", "roof:shape": null, "type": null }, "geometry": { "type": "Polygon", "coordinates": [ [ [ -6.7305705, 33.9808468 ], [ -6.7307405, 33.9809372 ], [ -6.7307586, 33.9809139 ], [ -6.7308287, 33.9809511 ], [ -6.7308026, 33.9809848 ], [ -6.7310384, 33.9811101 ], [ -6.7310679, 33.9810719 ], [ -6.7311357, 33.9811079 ], [ -6.7311061, 33.9811462 ], [ -6.7312705, 33.9812335 ], [ -6.7314404, 33.9810136 ], [ -6.7312687, 33.9809224 ], [ -6.7312254, 33.9809784 ], [ -6.7311655, 33.9809466 ], [ -6.731284, 33.9807933 ], [ -6.7310535, 33.9806707 ], [ -6.7309339, 33.9808253 ], [ -6.7308614, 33.9807868 ], [ -6.7309026, 33.9807335 ], [ -6.7307293, 33.9806414 ], [ -6.7305705, 33.9808468 ] ] ] } },
{ "type": "Feature", "properties": { "id": "way/1202079463", "@id": "way/1202079463", "building": "yes", "building:colour": null, "building:levels": null, "building:material": null, "fixme": null, "height": null, "layer": null, "min_height": null, "name": "omnisport", "note": null, "roof:colour": "#c0bfbc", "roof:shape": null, "type": null }, "geometry": { "type": "Polygon", "coordinates": [ [ [ -6.7277715, 33.9801723 ], [ -6.7282668, 33.9804267 ], [ -6.7285163, 33.9800928 ], [ -6.7280209, 33.9798384 ], [ -6.7277715, 33.9801723 ] ] ] } },
{ "type": "Feature", "properties": { "id": "way/1202079464", "@id": "way/1202079464", "building": "yes", "building:colour": "#c64600", "building:levels": "2", "building:material": null, "fixme": "height and number of floors and colors", "height": "10", "layer": null, "min_height": null, "name": "Teaching Building A", "note": null, "roof:colour": "#c0bfbc", "roof:shape": null, "type": null }, "geometry": { "type": "Polygon", "coordinates": [ [ [ -6.7295545, 33.9809507 ], [ -6.7297042, 33.9807513 ], [ -6.7294666, 33.9806287 ], [ -6.7293998, 33.980714 ], [ -6.7293422, 33.980683 ], [ -6.7294083, 33.9805986 ], [ -6.7291821, 33.9804819 ], [ -6.7291019, 33.9805874 ], [ -6.7290058, 33.9805372 ], [ -6.7290856, 33.9804322 ], [ -6.7288569, 33.9803141 ], [ -6.728799, 33.9803949 ], [ -6.7287431, 33.9803673 ], [ -6.7288016, 33.9802856 ], [ -6.7285982, 33.9801807 ], [ -6.7282611, 33.9806301 ], [ -6.7284669, 33.9807362 ], [ -6.7285245, 33.9806555 ], [ -6.7285805, 33.980683 ], [ -6.7285221, 33.9807647 ], [ -6.7287477, 33.980881 ], [ -6.7288181, 33.980772 ], [ -6.7289249, 33.9808276 ], [ -6.7288442, 33.9809308 ], [ -6.7290721, 33.9810483 ], [ -6.7291304, 33.9809671 ], [ -6.7291864, 33.9809947 ], [ -6.7291274, 33.9810768 ], [ -6.7293672, 33.9812005 ], [ -6.729503, 33.9810194 ], [ -6.7294326, 33.9809791 ], [ -6.7294881, 33.9809135 ], [ -6.7295545, 33.9809507 ] ] ] } },
{ "type": "Feature", "properties": { "id": "way/1202079465", "@id": "way/1202079465", "building": "yes", "building:colour": "#D8BF96", "building:levels": "2", "building:material": null, "fixme": null, "height": "8", "layer": null, "min_height": null, "name": "Library", "note": null, "roof:colour": "#deddda", "roof:shape": null, "type": null }, "geometry": { "type": "Polygon", "coordinates": [ [ [ -6.7304848, 33.9814056 ], [ -6.7302899, 33.9816651 ], [ -6.7305204, 33.9817841 ], [ -6.7307154, 33.9815247 ], [ -6.7306427, 33.9814854 ], [ -6.730559, 33.9814418 ], [ -6.7304848, 33.9814056 ] ] ] } },
{ "type": "Feature", "properties": { "id": "way/1202079467", "@id": "way/1202079467", "building": "yes", "building:colour": null, "building:levels": null, "building:material": null, "fixme": null, "height": null, "layer": null, "min_height": null, "name": "", "note": null, "roof:colour": null, "roof:shape": null, "type": null }, "geometry": { "type": "Polygon", "coordinates": [ [ [ -6.7292524, 33.9815379 ], [ -6.7291982, 33.9816087 ], [ -6.7296921, 33.9818688 ], [ -6.7297462, 33.9817981 ], [ -6.7292524, 33.9815379 ] ] ] } },
{ "type": "Feature", "properties": { "id": "way/1202079468", "@id": "way/1202079468", "building": "yes", "building:colour": null, "building:levels": null, "building:material": null, "fixme": null, "height": null, "layer": null, "min_height": null, "name": "Residence r3", "note": null, "roof:colour": "#deddda", "roof:shape": null, "type": null }, "geometry": { "type": "Polygon", "coordinates": [ [ [ -6.7284721, 33.9793807 ], [ -6.728496, 33.9793495 ], [ -6.7288223, 33.9795217 ], [ -6.7287989, 33.9795523 ], [ -6.7288891, 33.9795999 ], [ -6.7289999, 33.9794556 ], [ -6.7285031, 33.9791931 ], [ -6.7283917, 33.9793385 ], [ -6.7284721, 33.9793807 ] ] ] } },
{ "type": "Feature", "properties": { "id": "way/1202079469", "@id": "way/1202079469", "building": "yes", "building:colour": null, "building:levels": null, "building:material": null, "fixme": null, "height": null, "layer": null, "min_height": null, "name": "Residence r3", "note": null, "roof:colour": null, "roof:shape": null, "type": null }, "geometry": { "type": "Polygon", "coordinates": [ [ [ -6.7282981, 33.9794647 ], [ -6.7281896, 33.9796097 ], [ -6.7286891, 33.9798666 ], [ -6.7287994, 33.9797192 ], [ -6.7287129, 33.9796747 ], [ -6.7286904, 33.9797047 ], [ -6.7283575, 33.9795334 ], [ -6.7283781, 33.9795059 ], [ -6.7282981, 33.9794647 ] ] ] } },
{ "type": "Feature", "properties": { "id": "way/1202079470", "@id": "way/1202079470", "building": "yes", "building:colour": null, "building:levels": null, "building:material": null, "fixme": null, "height": null, "layer": null, "min_height": null, "name": "", "note": null, "roof:colour": "#3d3846", "roof:shape": null, "type": null }, "geometry": { "type": "Polygon", "coordinates": [ [ [ -6.7282981, 33.9794647 ], [ -6.7283781, 33.9795059 ], [ -6.7284322, 33.9795328 ], [ -6.7285269, 33.9794106 ], [ -6.7283917, 33.9793385 ], [ -6.7282981, 33.9794647 ] ] ] } },
{ "type": "Feature", "properties": { "id": "way/1202079471", "@id": "way/1202079471", "building": "yes", "building:colour": null, "building:levels": null, "building:material": null, "fixme": null, "height": null, "layer": null, "min_height": null, "name": "", "note": null, "roof:colour": "#3d3846", "roof:shape": null, "type": null }, "geometry": { "type": "Polygon", "coordinates": [ [ [ -6.7287559, 33.9795271 ], [ -6.7286594, 33.9796455 ], [ -6.7287129, 33.9796747 ], [ -6.7287994, 33.9797192 ], [ -6.7288891, 33.9795999 ], [ -6.7287989, 33.9795523 ], [ -6.7287559, 33.9795271 ] ] ] } },
{ "type": "Feature", "properties": { "id": "way/1202079472", "@id": "way/1202079472", "building": "yes", "building:colour": null, "building:levels": null, "building:material": null, "fixme": null, "height": null, "layer": null, "min_height": null, "name": "", "note": null, "roof:colour": "#3d3846", "roof:shape": null, "type": null }, "geometry": { "type": "Polygon", "coordinates": [ [ [ -6.7288985, 33.9797771 ], [ -6.7289808, 33.9798191 ], [ -6.7290331, 33.9798465 ], [ -6.7291278, 33.9797242 ], [ -6.7289925, 33.9796522 ], [ -6.7288985, 33.9797771 ] ] ] } },
{ "type": "Feature", "properties": { "id": "way/1202079473", "@id": "way/1202079473", "building": "yes", "building:colour": null, "building:levels": null, "building:material": null, "fixme": null, "height": null, "layer": null, "min_height": null, "name": "Residence r2 ", "note": null, "roof:colour": null, "roof:shape": null, "type": null }, "geometry": { "type": "Polygon", "coordinates": [ [ [ -6.7288985, 33.9797771 ], [ -6.7287899, 33.9799235 ], [ -6.7292894, 33.9801784 ], [ -6.7293979, 33.9800322 ], [ -6.7293143, 33.9799896 ], [ -6.729294, 33.9800169 ], [ -6.7289604, 33.9798466 ], [ -6.7289808, 33.9798191 ], [ -6.7288985, 33.9797771 ] ] ] } },
{ "type": "Feature", "properties": { "id": "way/1202079474", "@id": "way/1202079474", "building": "yes", "building:colour": null, "building:levels": null, "building:material": null, "fixme": null, "height": null, "layer": null, "min_height": null, "name": "", "note": null, "roof:colour": "#3d3846", "roof:shape": null, "type": null }, "geometry": { "type": "Polygon", "coordinates": [ [ [ -6.7293565, 33.9798397 ], [ -6.7292602, 33.9799591 ], [ -6.7293143, 33.9799896 ], [ -6.7293979, 33.9800322 ], [ -6.7294899, 33.9799136 ], [ -6.729401, 33.9798644 ], [ -6.7293565, 33.9798397 ] ] ] } },
{ "type": "Feature", "properties": { "id": "way/1202079475", "@id": "way/1202079475", "building": "yes", "building:colour": null, "building:levels": null, "building:material": null, "fixme": null, "height": null, "layer": null, "min_height": null, "name": "Residence r2 ", "note": null, "roof:colour": "#deddda", "roof:shape": null, "type": null }, "geometry": { "type": "Polygon", "coordinates": [ [ [ -6.7290729, 33.9796943 ], [ -6.7290968, 33.9796631 ], [ -6.7294232, 33.9798353 ], [ -6.729401, 33.9798644 ], [ -6.7294899, 33.9799136 ], [ -6.7296008, 33.9797691 ], [ -6.7291039, 33.9795067 ], [ -6.7289925, 33.9796522 ], [ -6.7290729, 33.9796943 ] ] ] } },
{ "type": "Feature", "properties": { "id": "way/1202079476", "@id": "way/1202079476", "building": "yes", "building:colour": null, "building:levels": null, "building:material": null, "fixme": null, "height": null, "layer": null, "min_height": null, "name": "", "note": null, "roof:colour": "#3d3846", "roof:shape": null, "type": null }, "geometry": { "type": "Polygon", "coordinates": [ [ [ -6.7295022, 33.9801026 ], [ -6.7295833, 33.9801441 ], [ -6.7296365, 33.9801714 ], [ -6.7297313, 33.980049 ], [ -6.7295961, 33.979977 ], [ -6.7295022, 33.9801026 ] ] ] } },
{ "type": "Feature", "properties": { "id": "way/1202079477", "@id": "way/1202079477", "building": "yes", "building:colour": null, "building:levels": null, "building:material": null, "fixme": null, "height": null, "layer": null, "min_height": null, "name": "Residence r1", "note": null, "roof:colour": null, "roof:shape": null, "type": null }, "geometry": { "type": "Polygon", "coordinates": [ [ [ -6.7295022, 33.9801026 ], [ -6.7293939, 33.9802481 ], [ -6.729893, 33.9805035 ], [ -6.7300021, 33.9803569 ], [ -6.7299175, 33.9803135 ], [ -6.7298962, 33.9803421 ], [ -6.7295629, 33.9801715 ], [ -6.7295833, 33.9801441 ], [ -6.7295022, 33.9801026 ] ] ] } },
{ "type": "Feature", "properties": { "id": "way/1202079478", "@id": "way/1202079478", "building": "yes", "building:colour": null, "building:levels": null, "building:material": null, "fixme": null, "height": null, "layer": null, "min_height": null, "name": "", "note": null, "roof:colour": "#3d3846", "roof:shape": null, "type": null }, "geometry": { "type": "Polygon", "coordinates": [ [ [ -6.72996, 33.9801644 ], [ -6.7298637, 33.9802839 ], [ -6.7299175, 33.9803135 ], [ -6.7300021, 33.9803569 ], [ -6.7300934, 33.9802383 ], [ -6.7300045, 33.9801891 ], [ -6.72996, 33.9801644 ] ] ] } },
{ "type": "Feature", "properties": { "id": "way/1202079479", "@id": "way/1202079479", "building": "yes", "building:colour": null, "building:levels": null, "building:material": null, "fixme": null, "height": null, "layer": null, "min_height": null, "name": "Residence r1", "note": null, "roof:colour": "#deddda", "roof:shape": null, "type": null }, "geometry": { "type": "Polygon", "coordinates": [ [ [ -6.7296764, 33.980019 ], [ -6.7297003, 33.9799878 ], [ -6.7300267, 33.98016 ], [ -6.7300045, 33.9801891 ], [ -6.7300934, 33.9802383 ], [ -6.7302043, 33.9800939 ], [ -6.7297073, 33.9798314 ], [ -6.7295961, 33.979977 ], [ -6.7296764, 33.980019 ] ] ] } },
{ "type": "Feature", "properties": { "id": "way/1202079485", "@id": "way/1202079485", "building": "yes", "building:colour": "#D8BF96", "building:levels": null, "building:material": null, "fixme": null, "height": null, "layer": null, "min_height": null, "name": "Hotel Riad - um6p", "note": null, "roof:colour": "#c0bfbc", "roof:shape": null, "type": null }, "geometry": { "type": "Polygon", "coordinates": [ [ [ -6.7266811, 33.9793549 ], [ -6.7267706, 33.9794013 ], [ -6.72678, 33.9793889 ], [ -6.7271349, 33.9795726 ], [ -6.7271251, 33.9795856 ], [ -6.7272182, 33.9796338 ], [ -6.7272279, 33.9796208 ], [ -6.727566, 33.9797957 ], [ -6.7275559, 33.9798092 ], [ -6.7276531, 33.9798595 ], [ -6.7277876, 33.9796806 ], [ -6.7276928, 33.9796315 ], [ -6.7276837, 33.9796436 ], [ -6.7273385, 33.9794651 ], [ -6.7273473, 33.9794536 ], [ -6.7272528, 33.9794047 ], [ -6.7272454, 33.9794146 ], [ -6.7269025, 33.9792371 ], [ -6.7269121, 33.9792243 ], [ -6.7268167, 33.9791749 ], [ -6.7266811, 33.9793549 ] ] ] } },
{ "type": "Feature", "properties": { "id": "way/1202079487", "@id": "way/1202079487", "building": "yes", "building:colour": null, "building:levels": null, "building:material": null, "fixme": null, "height": null, "layer": null, "min_height": null, "name": "", "note": null, "roof:colour": null, "roof:shape": null, "type": null }, "geometry": { "type": "Polygon", "coordinates": [ [ [ -6.7266415, 33.9794115 ], [ -6.7264146, 33.9797273 ], [ -6.7265646, 33.979807 ], [ -6.7267934, 33.9795008 ], [ -6.7266415, 33.9794115 ] ] ] } },
{ "type": "Feature", "properties": { "id": "way/1202079488", "@id": "way/1202079488", "building": "yes", "building:colour": null, "building:levels": null, "building:material": null, "fixme": null, "height": null, "layer": null, "min_height": null, "name": "", "note": null, "roof:colour": null, "roof:shape": null, "type": null }, "geometry": { "type": "Polygon", "coordinates": [ [ [ -6.7272338, 33.9801547 ], [ -6.7273761, 33.9802328 ], [ -6.7276242, 33.9799171 ], [ -6.7274607, 33.9798389 ], [ -6.7272338, 33.9801547 ] ] ] } },
{ "type": "Feature", "properties": { "id": "way/1319677254", "@id": "way/1319677254", "building": "yes", "building:colour": null, "building:levels": "5", "building:material": null, "fixme": null, "height": null, "layer": null, "min_height": null, "name": "", "note": null, "roof:colour": "#c0bfbc", "roof:shape": null, "type": null }, "geometry": { "type": "Polygon", "coordinates": [ [ [ -6.7279498, 33.9812652 ], [ -6.7278059, 33.9811905 ], [ -6.7276086, 33.981452 ], [ -6.7277525, 33.9815266 ], [ -6.7279498, 33.9812652 ] ] ] } },
{ "type": "Feature", "properties": { "id": "way/1319677255", "@id": "way/1319677255", "building": "yes", "building:colour": null, "building:levels": "5", "building:material": null, "fixme": null, "height": null, "layer": null, "min_height": null, "name": "", "note": null, "roof:colour": "#304442", "roof:shape": null, "type": null }, "geometry": { "type": "Polygon", "coordinates": [ [ [ -6.7277252, 33.9811505 ], [ -6.7275813, 33.9810758 ], [ -6.7273841, 33.9813374 ], [ -6.727528, 33.981412 ], [ -6.7277252, 33.9811505 ] ] ] } },
{ "type": "Feature", "properties": { "id": "way/1319677256", "@id": "way/1319677256", "building": "yes", "building:colour": null, "building:levels": "5", "building:material": null, "fixme": null, "height": null, "layer": null, "min_height": null, "name": "", "note": null, "roof:colour": "#c0bfbc", "roof:shape": null, "type": null }, "geometry": { "type": "Polygon", "coordinates": [ [ [ -6.7288802, 33.9818443 ], [ -6.7287363, 33.9817696 ], [ -6.7285391, 33.9820312 ], [ -6.7286829, 33.9821058 ], [ -6.7288802, 33.9818443 ] ] ] } },
{ "type": "Feature", "properties": { "id": "way/1319677257", "@id": "way/1319677257", "building": "yes", "building:colour": null, "building:levels": "5", "building:material": null, "fixme": null, "height": null, "layer": null, "min_height": null, "name": "", "note": null, "roof:colour": "#c0bfbc", "roof:shape": null, "type": null }, "geometry": { "type": "Polygon", "coordinates": [ [ [ -6.7291243, 33.9819703 ], [ -6.7289804, 33.9818957 ], [ -6.7287832, 33.9821572 ], [ -6.7289271, 33.9822318 ], [ -6.7291243, 33.9819703 ] ] ] } },
{ "type": "Feature", "properties": { "id": "way/1319677258", "@id": "way/1319677258", "building": "yes", "building:colour": null, "building:levels": "5", "building:material": null, "fixme": null, "height": null, "layer": null, "min_height": null, "name": "Residence r6", "note": null, "roof:colour": "#c0bfbc", "roof:shape": null, "type": null }, "geometry": { "type": "Polygon", "coordinates": [ [ [ -6.7283401, 33.9814625 ], [ -6.7281882, 33.9813829 ], [ -6.727929, 33.981723 ], [ -6.7275333, 33.9815157 ], [ -6.7274371, 33.9816419 ], [ -6.7279846, 33.9819289 ], [ -6.7283401, 33.9814625 ] ] ] } },
{ "type": "Feature", "properties": { "id": "way/1319677259", "@id": "way/1319677259", "building": "yes", "building:colour": null, "building:levels": "5", "building:material": null, "fixme": null, "height": null, "layer": null, "min_height": null, "name": "Residence r4", "note": null, "roof:colour": "#c0bfbc", "roof:shape": null, "type": null }, "geometry": { "type": "Polygon", "coordinates": [ [ [ -6.7295458, 33.9820972 ], [ -6.7293939, 33.9820176 ], [ -6.7291347, 33.9823577 ], [ -6.728739, 33.9821504 ], [ -6.7286428, 33.9822766 ], [ -6.7291903, 33.9825636 ], [ -6.7295458, 33.9820972 ] ] ] } },
{ "type": "Feature", "properties": { "id": "way/1319677260", "@id": "way/1319677260", "building": "yes", "building:colour": null, "building:levels": "5", "building:material": null, "fixme": null, "height": null, "layer": null, "min_height": null, "name": "Residence r5", "note": null, "roof:colour": "#c0bfbc", "roof:shape": null, "type": null }, "geometry": { "type": "Polygon", "coordinates": [ [ [ -6.7284074, 33.9815071 ], [ -6.7280519, 33.9819735 ], [ -6.7285993, 33.9822604 ], [ -6.7286956, 33.9821342 ], [ -6.7283, 33.9819268 ], [ -6.7285593, 33.9815867 ], [ -6.7284074, 33.9815071 ] ] ] } },
{ "type": "Feature", "properties": { "id": "way/1319677261", "@id": "way/1319677261", "building": "yes", "building:colour": null, "building:levels": "5", "building:material": null, "fixme": null, "height": null, "layer": null, "min_height": null, "name": "Residence r7", "note": null, "roof:colour": "#c0bfbc", "roof:shape": null, "type": null }, "geometry": { "type": "Polygon", "coordinates": [ [ [ -6.7271952, 33.9808687 ], [ -6.7268396, 33.9813351 ], [ -6.7273871, 33.981622 ], [ -6.7274834, 33.9814958 ], [ -6.7270877, 33.9812884 ], [ -6.7273471, 33.9809483 ], [ -6.7271952, 33.9808687 ] ] ] } },
{ "type": "Feature", "properties": { "id": "way/1321699070", "@id": "way/1321699070", "building": "yes", "building:colour": null, "building:levels": null, "building:material": null, "fixme": null, "height": null, "layer": null, "min_height": null, "name": "", "note": null, "roof:colour": null, "roof:shape": null, "type": null }, "geometry": { "type": "Polygon", "coordinates": [ [ [ -6.7243957, 33.9814667 ], [ -6.7243803, 33.9814322 ], [ -6.7243695, 33.9814015 ], [ -6.724355, 33.981357 ], [ -6.724351, 33.9813148 ], [ -6.7243526, 33.9812778 ], [ -6.7243603, 33.9812408 ], [ -6.7243681, 33.9812102 ], [ -6.7243079, 33.9811539 ], [ -6.7240439, 33.981355 ], [ -6.7242679, 33.981556 ], [ -6.7243957, 33.9814667 ] ] ] } },
{ "type": "Feature", "properties": { "id": "way/1321936174", "@id": "way/1321936174", "building": "yes", "building:colour": null, "building:levels": null, "building:material": null, "fixme": null, "height": null, "layer": null, "min_height": null, "name": "", "note": null, "roof:colour": null, "roof:shape": null, "type": null }, "geometry": { "type": "Polygon", "coordinates": [ [ [ -6.7247235, 33.9819757 ], [ -6.7249058, 33.9817334 ], [ -6.7248571, 33.981738 ], [ -6.7248154, 33.9817357 ], [ -6.7247723, 33.9817323 ], [ -6.7247319, 33.9817253 ], [ -6.7246902, 33.9817149 ], [ -6.7246595, 33.9817034 ], [ -6.7245357, 33.9818003 ], [ -6.7247235, 33.9819757 ] ] ] } },
{ "type": "Feature", "properties": { "id": "way/1321936175", "@id": "way/1321936175", "building": "yes", "building:colour": null, "building:levels": null, "building:material": null, "fixme": null, "height": null, "layer": null, "min_height": null, "name": "", "note": null, "roof:colour": null, "roof:shape": null, "type": null }, "geometry": { "type": "Polygon", "coordinates": [ [ [ -6.7244859, 33.9817576 ], [ -6.7246016, 33.9816751 ], [ -6.724568, 33.9816617 ], [ -6.7245384, 33.9816483 ], [ -6.7245114, 33.9816259 ], [ -6.7244872, 33.9816036 ], [ -6.7244616, 33.9815791 ], [ -6.7244468, 33.9815579 ], [ -6.7244348, 33.9815356 ], [ -6.7243217, 33.9816103 ], [ -6.7244859, 33.9817576 ] ] ] } },
{ "type": "Feature", "properties": { "id": "way/1321954887", "@id": "way/1321954887", "building": "yes", "building:colour": "#1C6628", "building:levels": "1", "building:material": null, "fixme": null, "height": null, "layer": null, "min_height": null, "name": "Entrée Parking ", "note": null, "roof:colour": "#BBBBBB", "roof:shape": null, "type": null }, "geometry": { "type": "Polygon", "coordinates": [ [ [ -6.727186, 33.9816943 ], [ -6.7272341, 33.9816326 ], [ -6.7271407, 33.9815826 ], [ -6.7270926, 33.9816443 ], [ -6.727186, 33.9816943 ] ] ] } },
{ "type": "Feature", "properties": { "id": "way/1321954888", "@id": "way/1321954888", "building": "yes", "building:colour": "#1C6628", "building:levels": "1", "building:material": null, "fixme": null, "height": null, "layer": null, "min_height": null, "name": "Entrée Parking ", "note": null, "roof:colour": "#BBBBBB", "roof:shape": null, "type": null }, "geometry": { "type": "Polygon", "coordinates": [ [ [ -6.7276169, 33.9819183 ], [ -6.727665, 33.9818566 ], [ -6.7275716, 33.9818065 ], [ -6.7275235, 33.9818682 ], [ -6.7276169, 33.9819183 ] ] ] } },
{ "type": "Feature", "properties": { "id": "way/1322960772", "@id": "way/1322960772", "building": "yes", "building:colour": "#1C6628", "building:levels": "1", "building:material": null, "fixme": null, "height": null, "layer": null, "min_height": null, "name": "Entrée Parking ", "note": null, "roof:colour": "#999999", "roof:shape": null, "type": null }, "geometry": { "type": "Polygon", "coordinates": [ [ [ -6.726655, 33.9814222 ], [ -6.7267021, 33.9813596 ], [ -6.7265661, 33.9812893 ], [ -6.726519, 33.9813518 ], [ -6.726655, 33.9814222 ] ] ] } },
{ "type": "Feature", "properties": { "id": "way/1322983697", "@id": "way/1322983697", "building": "yes", "building:colour": "#D8BF96", "building:levels": null, "building:material": null, "fixme": null, "height": "8", "layer": null, "min_height": null, "name": "", "note": null, "roof:colour": null, "roof:shape": null, "type": null }, "geometry": { "type": "Polygon", "coordinates": [ [ [ -6.724955, 33.9807465 ], [ -6.7248907, 33.9807135 ], [ -6.7243646, 33.9811161 ], [ -6.7243706, 33.9811211 ], [ -6.7248905, 33.9807246 ], [ -6.7249488, 33.9807543 ], [ -6.724955, 33.9807465 ] ] ] } },
{ "type": "Feature", "properties": { "id": "way/1322983698", "@id": "way/1322983698", "building": "yes", "building:colour": "#D8BF96", "building:levels": null, "building:material": null, "fixme": null, "height": "8", "layer": null, "min_height": "6", "name": "", "note": null, "roof:colour": null, "roof:shape": null, "type": null }, "geometry": { "type": "Polygon", "coordinates": [ [ [ -6.7253334, 33.980941 ], [ -6.7253064, 33.9809271 ], [ -6.7253016, 33.9809332 ], [ -6.7253288, 33.980947 ], [ -6.7253334, 33.980941 ] ] ] } },
{ "type": "Feature", "properties": { "id": "way/1322983699", "@id": "way/1322983699", "building": "yes", "building:colour": "#D8BF96", "building:levels": null, "building:material": null, "fixme": null, "height": "8", "layer": null, "min_height": "6", "name": "", "note": null, "roof:colour": null, "roof:shape": null, "type": null }, "geometry": { "type": "Polygon", "coordinates": [ [ [ -6.7252433, 33.9809036 ], [ -6.7252705, 33.9809174 ], [ -6.7252753, 33.9809111 ], [ -6.7252481, 33.9808971 ], [ -6.7252433, 33.9809036 ] ] ] } },
{ "type": "Feature", "properties": { "id": "way/1322983701", "@id": "way/1322983701", "building": "yes", "building:colour": "#D8BF96", "building:levels": null, "building:material": null, "fixme": null, "height": "8", "layer": null, "min_height": "6", "name": "", "note": null, "roof:colour": null, "roof:shape": null, "type": null }, "geometry": { "type": "Polygon", "coordinates": [ [ [ -6.7251507, 33.9808566 ], [ -6.725156, 33.9808498 ], [ -6.7251288, 33.9808358 ], [ -6.7251234, 33.9808428 ], [ -6.7251507, 33.9808566 ] ] ] } },
{ "type": "Feature", "properties": { "id": "way/1322983702", "@id": "way/1322983702", "building": "yes", "building:colour": "#D8BF96", "building:levels": null, "building:material": null, "fixme": null, "height": "8", "layer": null, "min_height": "6", "name": "", "note": null, "roof:colour": null, "roof:shape": null, "type": null }, "geometry": { "type": "Polygon", "coordinates": [ [ [ -6.7250975, 33.9808198 ], [ -6.7250701, 33.9808057 ], [ -6.7250646, 33.980813 ], [ -6.7250921, 33.9808269 ], [ -6.7250975, 33.9808198 ] ] ] } },
{ "type": "Feature", "properties": { "id": "way/1322983704", "@id": "way/1322983704", "building": "yes", "building:colour": "#D8BF96", "building:levels": null, "building:material": null, "fixme": null, "height": "8", "layer": null, "min_height": "6", "name": "", "note": null, "roof:colour": null, "roof:shape": null, "type": null }, "geometry": { "type": "Polygon", "coordinates": [ [ [ -6.7249822, 33.9807605 ], [ -6.724955, 33.9807465 ], [ -6.7249488, 33.9807543 ], [ -6.7249761, 33.9807681 ], [ -6.7249822, 33.9807605 ] ] ] } },
{ "type": "Feature", "properties": { "id": "way/1324120165", "@id": "way/1324120165", "building": "yes", "building:colour": null, "building:levels": null, "building:material": null, "fixme": null, "height": null, "layer": "2", "min_height": null, "name": "", "note": null, "roof:colour": "#D8BF96", "roof:shape": "dome", "type": null }, "geometry": { "type": "Polygon", "coordinates": [ [ [ -6.731939, 33.979863 ], [ -6.7319008, 33.9798204 ], [ -6.731848, 33.9797902 ], [ -6.7317863, 33.9797757 ], [ -6.7317223, 33.9797785 ], [ -6.7316628, 33.9797983 ], [ -6.7316142, 33.9798329 ], [ -6.7315815, 33.9798786 ], [ -6.7315684, 33.9799307 ], [ -6.7315763, 33.9799834 ], [ -6.7316042, 33.9800313 ], [ -6.7316398, 33.9800631 ], [ -6.7316842, 33.9800859 ], [ -6.7317344, 33.9800983 ], [ -6.7317867, 33.9800991 ], [ -6.7318374, 33.9800885 ], [ -6.731883, 33.9800672 ], [ -6.7319201, 33.9800366 ], [ -6.7319462, 33.979999 ], [ -6.7319593, 33.979957 ], [ -6.7319586, 33.9799136 ], [ -6.731939, 33.979863 ] ] ] } },
{ "type": "Feature", "properties": { "id": "way/1324328882", "@id": "way/1324328882", "building": "yes", "building:colour": null, "building:levels": null, "building:material": null, "fixme": null, "height": "20", "layer": null, "min_height": null, "name": "", "note": null, "roof:colour": "#ece5c8", "roof:shape": null, "type": null }, "geometry": { "type": "Polygon", "coordinates": [ [ [ -6.7252054, 33.9812136 ], [ -6.7248051, 33.9810077 ], [ -6.7245172, 33.9813926 ], [ -6.7249176, 33.9815985 ], [ -6.7252054, 33.9812136 ] ] ] } },
{ "type": "Feature", "properties": { "id": "way/1324842789", "@id": "way/1324842789", "building": "yes", "building:colour": "#D8BF96", "building:levels": "2", "building:material": null, "fixme": null, "height": "8", "layer": null, "min_height": null, "name": "Gallery ", "note": null, "roof:colour": "#deddda", "roof:shape": null, "type": null }, "geometry": { "type": "Polygon", "coordinates": [ [ [ -6.7306855, 33.9814288 ], [ -6.7310136, 33.9815993 ], [ -6.7311326, 33.9814419 ], [ -6.7308036, 33.9812709 ], [ -6.7307701, 33.9813171 ], [ -6.7306855, 33.9814288 ] ] ] } },
{ "type": "Feature", "properties": { "id": "way/1324842790", "@id": "way/1324842790", "building": "yes", "building:colour": "#D8BF96", "building:levels": "2", "building:material": null, "fixme": null, "height": "8", "layer": null, "min_height": null, "name": "Health center ", "note": null, "roof:colour": "#deddda", "roof:shape": null, "type": null }, "geometry": { "type": "Polygon", "coordinates": [ [ [ -6.7306013, 33.9813858 ], [ -6.7306864, 33.9812735 ], [ -6.7307218, 33.9812305 ], [ -6.7304072, 33.9810679 ], [ -6.7302894, 33.9812245 ], [ -6.7306013, 33.9813858 ] ] ] } },
{ "type": "Feature", "properties": { "id": "way/1324842791", "@id": "way/1324842791", "building": "yes", "building:colour": "#D8BF96", "building:levels": "1", "building:material": null, "fixme": null, "height": null, "layer": null, "min_height": null, "name": "", "note": null, "roof:colour": "#deddda", "roof:shape": null, "type": null }, "geometry": { "type": "Polygon", "coordinates": [ [ [ -6.7306427, 33.9814854 ], [ -6.7306855, 33.9814288 ], [ -6.7307701, 33.9813171 ], [ -6.7306864, 33.9812735 ], [ -6.7306013, 33.9813858 ], [ -6.730559, 33.9814418 ], [ -6.7306427, 33.9814854 ] ] ] } },
{ "type": "Feature", "properties": { "id": "way/1325523321", "@id": "way/1325523321", "building": "yes", "building:colour": null, "building:levels": null, "building:material": "glass", "fixme": null, "height": "12", "layer": null, "min_height": "10", "name": "", "note": null, "roof:colour": "#1a5fb4", "roof:shape": "hipped", "type": null }, "geometry": { "type": "Polygon", "coordinates": [ [ [ -6.7285213, 33.9803927 ], [ -6.728457, 33.9804776 ], [ -6.7288808, 33.9806984 ], [ -6.7288342, 33.98076 ], [ -6.728941, 33.9808156 ], [ -6.7289861, 33.980756 ], [ -6.7294217, 33.9809828 ], [ -6.7294929, 33.9808888 ], [ -6.7290579, 33.9806623 ], [ -6.7290997, 33.9806072 ], [ -6.7289924, 33.9805513 ], [ -6.7289453, 33.9806135 ], [ -6.7285213, 33.9803927 ] ] ] } },
{ "type": "Feature", "properties": { "id": "way/1326229275", "@id": "way/1326229275", "building": "yes", "building:colour": "#D8BF96", "building:levels": null, "building:material": null, "fixme": null, "height": null, "layer": null, "min_height": null, "name": "Hotel 1 ", "note": null, "roof:colour": "#c0bfbc", "roof:shape": null, "type": null }, "geometry": { "type": "Polygon", "coordinates": [ [ [ -6.7269397, 33.9790106 ], [ -6.7270292, 33.979057 ], [ -6.7270386, 33.9790446 ], [ -6.7273935, 33.9792283 ], [ -6.7273837, 33.9792413 ], [ -6.7274768, 33.9792895 ], [ -6.7274865, 33.9792765 ], [ -6.7278246, 33.9794514 ], [ -6.7278145, 33.9794649 ], [ -6.7279117, 33.9795152 ], [ -6.7280462, 33.9793363 ], [ -6.7279514, 33.9792872 ], [ -6.7279423, 33.9792993 ], [ -6.7275971, 33.9791208 ], [ -6.7276059, 33.9791093 ], [ -6.7275114, 33.9790604 ], [ -6.727504, 33.9790703 ], [ -6.7271611, 33.9788928 ], [ -6.7271707, 33.97888 ], [ -6.7270753, 33.9788306 ], [ -6.7269397, 33.9790106 ] ] ] } },
{ "type": "Feature", "properties": { "id": "way/1326256295", "@id": "way/1326256295", "building": "yes", "building:colour": "#D8BF96", "building:levels": null, "building:material": null, "fixme": null, "height": "8", "layer": null, "min_height": null, "name": "", "note": null, "roof:colour": null, "roof:shape": null, "type": null }, "geometry": { "type": "Polygon", "coordinates": [ [ [ -6.7253867, 33.9809764 ], [ -6.725444, 33.9810054 ], [ -6.7253624, 33.9811124 ], [ -6.725369, 33.9811163 ], [ -6.7254543, 33.981003 ], [ -6.7253912, 33.9809706 ], [ -6.7253867, 33.9809764 ] ] ] } },
{ "type": "Feature", "properties": { "id": "way/1326256296", "@id": "way/1326256296", "building": "yes", "building:colour": "#D8BF96", "building:levels": null, "building:material": null, "fixme": null, "height": "8", "layer": null, "min_height": "6", "name": "", "note": null, "roof:colour": null, "roof:shape": null, "type": null }, "geometry": { "type": "Polygon", "coordinates": [ [ [ -6.7253867, 33.9809764 ], [ -6.7253912, 33.9809706 ], [ -6.7253641, 33.9809567 ], [ -6.7253597, 33.9809627 ], [ -6.7253867, 33.9809764 ] ] ] } },
{ "type": "Feature", "properties": { "id": "way/1327052689", "@id": "way/1327052689", "building": "yes", "building:colour": "#D8BF96", "building:levels": null, "building:material": null, "fixme": null, "height": "8", "layer": null, "min_height": null, "name": "", "note": null, "roof:colour": null, "roof:shape": null, "type": null }, "geometry": { "type": "Polygon", "coordinates": [ [ [ -6.7253288, 33.980947 ], [ -6.7253597, 33.9809627 ], [ -6.7253641, 33.9809567 ], [ -6.7253334, 33.980941 ], [ -6.7253288, 33.980947 ] ] ] } },
{ "type": "Feature", "properties": { "id": "way/1327052690", "@id": "way/1327052690", "building": "yes", "building:colour": "#D8BF96", "building:levels": null, "building:material": null, "fixme": null, "height": "8", "layer": null, "min_height": null, "name": "", "note": null, "roof:colour": null, "roof:shape": null, "type": null }, "geometry": { "type": "Polygon", "coordinates": [ [ [ -6.7252753, 33.9809111 ], [ -6.7252705, 33.9809174 ], [ -6.7253016, 33.9809332 ], [ -6.7253064, 33.9809271 ], [ -6.7252753, 33.9809111 ] ] ] } },
{ "type": "Feature", "properties": { "id": "way/1327052691", "@id": "way/1327052691", "building": "yes", "building:colour": "#D8BF96", "building:levels": null, "building:material": null, "fixme": null, "height": "8", "layer": null, "min_height": null, "name": "", "note": null, "roof:colour": null, "roof:shape": null, "type": null }, "geometry": { "type": "Polygon", "coordinates": [ [ [ -6.7252107, 33.9808871 ], [ -6.7252433, 33.9809036 ], [ -6.7252481, 33.9808971 ], [ -6.7252159, 33.9808806 ], [ -6.7252107, 33.9808871 ] ] ] } },
{ "type": "Feature", "properties": { "id": "way/1327052692", "@id": "way/1327052692", "building": "yes", "building:colour": "#D8BF96", "building:levels": null, "building:material": null, "fixme": null, "height": "8", "layer": null, "min_height": "6", "name": "", "note": null, "roof:colour": null, "roof:shape": null, "type": null }, "geometry": { "type": "Polygon", "coordinates": [ [ [ -6.7252107, 33.9808871 ], [ -6.7252159, 33.9808806 ], [ -6.725189, 33.9808667 ], [ -6.7251837, 33.9808734 ], [ -6.7252107, 33.9808871 ] ] ] } },
{ "type": "Feature", "properties": { "id": "way/1327052693", "@id": "way/1327052693", "building": "yes", "building:colour": "#D8BF96", "building:levels": null, "building:material": null, "fixme": null, "height": "8", "layer": null, "min_height": null, "name": "", "note": null, "roof:colour": null, "roof:shape": null, "type": null }, "geometry": { "type": "Polygon", "coordinates": [ [ [ -6.7251837, 33.9808734 ], [ -6.725189, 33.9808667 ], [ -6.725156, 33.9808498 ], [ -6.7251507, 33.9808566 ], [ -6.7251837, 33.9808734 ] ] ] } },
{ "type": "Feature", "properties": { "id": "way/1327052694", "@id": "way/1327052694", "building": "yes", "building:colour": "#D8BF96", "building:levels": null, "building:material": null, "fixme": null, "height": "8", "layer": null, "min_height": null, "name": "", "note": null, "roof:colour": null, "roof:shape": null, "type": null }, "geometry": { "type": "Polygon", "coordinates": [ [ [ -6.7250921, 33.9808269 ], [ -6.7251234, 33.9808428 ], [ -6.7251288, 33.9808358 ], [ -6.7250975, 33.9808198 ], [ -6.7250921, 33.9808269 ] ] ] } },
{ "type": "Feature", "properties": { "id": "way/1327052695", "@id": "way/1327052695", "building": "yes", "building:colour": "#D8BF96", "building:levels": null, "building:material": null, "fixme": null, "height": "8", "layer": null, "min_height": null, "name": "", "note": null, "roof:colour": null, "roof:shape": null, "type": null }, "geometry": { "type": "Polygon", "coordinates": [ [ [ -6.7250356, 33.9807982 ], [ -6.7250646, 33.980813 ], [ -6.7250701, 33.9808057 ], [ -6.7250414, 33.9807909 ], [ -6.7250356, 33.9807982 ] ] ] } },
{ "type": "Feature", "properties": { "id": "way/1327052696", "@id": "way/1327052696", "building": "yes", "building:colour": "#D8BF96", "building:levels": null, "building:material": null, "fixme": null, "height": "8", "layer": null, "min_height": "6", "name": "", "note": null, "roof:colour": null, "roof:shape": null, "type": null }, "geometry": { "type": "Polygon", "coordinates": [ [ [ -6.7250142, 33.9807769 ], [ -6.7250083, 33.9807844 ], [ -6.7250356, 33.9807982 ], [ -6.7250414, 33.9807909 ], [ -6.7250142, 33.9807769 ] ] ] } },
{ "type": "Feature", "properties": { "id": "way/1327052697", "@id": "way/1327052697", "building": "yes", "building:colour": "#D8BF96", "building:levels": null, "building:material": null, "fixme": null, "height": "8", "layer": null, "min_height": null, "name": "", "note": null, "roof:colour": null, "roof:shape": null, "type": null }, "geometry": { "type": "Polygon", "coordinates": [ [ [ -6.7249761, 33.9807681 ], [ -6.7250083, 33.9807844 ], [ -6.7250142, 33.9807769 ], [ -6.7249822, 33.9807605 ], [ -6.7249761, 33.9807681 ] ] ] } },
{ "type": "Feature", "properties": { "id": "way/1328566702", "@id": "way/1328566702", "building": "yes", "building:colour": null, "building:levels": null, "building:material": "glass", "fixme": null, "height": "12", "layer": null, "min_height": "10", "name": "", "note": null, "roof:colour": "#1a5fb4", "roof:shape": "hipped", "type": null }, "geometry": { "type": "Polygon", "coordinates": [ [ [ -6.7291226, 33.9784625 ], [ -6.7290473, 33.978564 ], [ -6.7306513, 33.9793827 ], [ -6.7307264, 33.9792816 ], [ -6.7291226, 33.9784625 ] ] ] } },
{ "type": "Feature", "properties": { "id": "UM6P School of Collective Intelligence", "@id": null, "building": null, "building:colour": null, "building:levels": null, "building:material": null, "fixme": null, "height": null, "layer": null, "min_height": null, "name": null, "note": null, "roof:colour": null, "roof:shape": null, "type": null }, "geometry": { "type": "Polygon", "coordinates": [ ] } },
{ "type": "Feature", "properties": { "id": "UM6P School of Collective Intelligence", "@id": null, "building": null, "building:colour": null, "building:levels": null, "building:material": null, "fixme": null, "height": null, "layer": null, "min_height": null, "name": null, "note": null, "roof:colour": null, "roof:shape": null, "type": null }, "geometry": { "type": "Polygon", "coordinates": [ ] } }
]
}
